GPS BIIR-2  (PRN 13)    
1 24876C 97035A   21319.70645833 -.00000000  00000-0  00000-0 0  3190
2 24876  55.4842 164.0127 0054984  54.7078 115.5224  2.00563046    16
GPS BIIR-4  (PRN 20)    
1 26360C 00025A   21319.70645833 -.00000000  00000-0  00000-0 0  3193
2 26360  53.8904  87.7119 0054701 176.1529  81.1824  2.00561681    13
GPS BIIR-8  (PRN 16)    
1 27663C 03005A   21319.70645833  .00000000  00000-0  00000-0 0  3190
2 27663  55.6652 281.5453 0122907  38.3010 194.9817  2.00550403    18
GPS BIIR-9  (PRN 21)    
1 27704C 03010A   21319.70645833 -.00000000  00000-0  00000-0 0  3193
2 27704  54.9335  31.9743 0244695 299.0744 153.9342  2.00570402    11
GPS BIIR-10 (PRN 22)    
1 28129C 03058A   21319.70645833 -.00000000  00000-0  00000-0 0  3197
2 28129  53.7022  90.3460 0069104 308.4687  82.8842  2.00562326    10
GPS BIIR-11 (PRN 19)    
1 28190C 04009A   21319.70645833  .00000000  00000-0  00000-0 0  3191
2 28190  56.1192 342.4673 0087337 113.7980 282.4141  2.00565252    12
GPS BIIR-13 (PRN 02)    
1 28474C 04045A   21319.70645833 -.00000000  00000-0  00000-0 0  3197
2 28474  55.2650  32.0338 0207459 275.2018  30.0107  2.00549947    13
GPS BIIRM-1 (PRN 17)    
1 28874C 05038A   21319.70645833  .00000000  00000-0  00000-0 0  3193
2 28874  56.1950 339.8905 0139767 271.9640 147.3038  2.00560878    19
GPS BIIRM-2 (PRN 31)    
1 29486C 06042A   21319.70645833  .00000000  00000-0  00000-0 0  3199
2 29486  54.7415 217.7805 0102862  17.8083 317.0955  2.00567159    19
GPS BIIRM-3 (PRN 12)    
1 29601C 06052A   21319.70645833  .00000000  00000-0  00000-0 0  3199
2 29601  55.6653 280.4754 0081330  69.8661 302.3163  2.00566406    19
GPS BIIRM-4 (PRN 15)    
1 32260C 07047A   21319.70645833 -.00000000  00000-0  00000-0 0  3190
2 32260  53.2623 149.4020 0136737  59.9052  93.8733  2.00559923    12
GPS BIIRM-5 (PRN 29)    
1 32384C 07062A   21319.70645833  .00000000  00000-0  00000-0 0  3193
2 32384  56.3071 340.6246 0016845 142.4142 141.7742  2.00578087    15
GPS BIIRM-6 (PRN 07)    
1 32711C 08012A   21319.70645833  .00000000  00000-0  00000-0 0  3193
2 32711  54.4972 216.7646 0154858 228.6969 340.8947  2.00557948    18
GPS BIIRM-8 (PRN 05)    
1 35752C 09043A   21319.70645833 -.00000000  00000-0  00000-0 0  3197
2 35752  54.9146  94.1474 0058069  57.0826 169.6418  2.00570248    12
GPS BIIF-1  (PRN 25)    
1 36585C 10022A   21319.70645833  .00000000  00000-0  00000-0 0  3190
2 36585  54.9433 276.1434 0098483  54.3733 291.8710  2.00554476    13
GPS BIIF-2  (PRN 01)    
1 37753C 11036A   21319.70645833 -.00000000  00000-0  00000-0 0  3195
2 37753  56.5001  37.0389 0109162  50.1423  18.7797  2.00564326    16
GPS BIIF-3  (PRN 24)    
1 38833C 12053A   21319.70645833  .00000000  00000-0  00000-0 0  3194
2 38833  53.5489 212.1133 0118178  43.8647  38.1407  2.00559754    13
GPS BIIF-4  (PRN 27)    
1 39166C 13023A   21319.70645833  .00000000  00000-0  00000-0 0  3192
2 39166  55.8317 336.3466 0095383  34.7040 146.5455  2.00567329    18
GPS BIIF-5  (PRN 30)    
1 39533C 14008A   21319.70645833  .00000000  00000-0  00000-0 0  3194
2 39533  53.6484 217.5978 0054362 204.8937 336.4978  2.00569810    19
GPS BIIF-6  (PRN 06)    
1 39741C 14026A   21319.70645833 -.00000000  00000-0  00000-0 0  3196
2 39741  56.4663  36.5656 0025881 297.7535  43.3913  2.00571345    10
GPS BIIF-7  (PRN 09)    
1 40105C 14045A   21319.70645833 -.00000000  00000-0  00000-0 0  3193
2 40105  54.6496 155.3391 0021306 106.4906 168.2438  2.00563341    18
GPS BIIF-8  (PRN 03)    
1 40294C 14068A   21319.70645833 -.00000000  00000-0  00000-0 0  3197
2 40294  55.6604  96.3912 0036871  55.4786 312.8769  2.00556652    15
GPS BIIF-9  (PRN 26)    
1 40534C 15013A   21319.70645833  .00000000  00000-0  00000-0 0  3194
2 40534  53.8468 273.5492 0063777  15.8362 255.6680  2.00565708    15
GPS BIIF-10 (PRN 08)    
1 40730C 15033A   21319.70645833  .00000000  00000-0  00000-0 0  3194
2 40730  55.3356 335.2767 0067585   1.0423 153.9494  2.00563351    18
GPS BIIF-11 (PRN 10)    
1 41019C 15062A   21319.70645833 -.00000000  00000-0  00000-0 0  3198
2 41019  55.6515  96.2297 0073311 214.0250 263.9184  2.00563258    13
GPS BIIF-12 (PRN 32)    
1 41328C 16007A   21319.70645833 -.00000000  00000-0  00000-0 0  3191
2 41328  54.8724 155.9574 0053514 224.7670 185.8391  2.00555674    12
GPS BIII-1  (PRN 04)    
1 43873C 18109A   21319.70645833 -.00000000  00000-0  00000-0 0  3193
2 43873  55.0535 158.3310 0015453 189.1114 115.3235  2.00563039    13
GPS BIII-2  (PRN 18)    
1 44506C 19056A   21319.70645833 -.00000000  00000-0  00000-0 0  3199
2 44506  55.5700  37.5647 0020668 180.8600  25.3406  2.00568098    19
GPS BIII-3  (PRN 23)    
1 45854C 20041A   21319.70645833 -.00000000  00000-0  00000-0 0  3192
2 45854  55.3668  94.8327 0018120 166.8411 341.0305  2.00562239    19
GPS BIII-4  (PRN 14)    
1 46826C 20078A   21319.70645833  .00000000  00000-0  00000-0 0  3191
2 46826  54.7160 278.7653 0012026 189.3232 288.5773  2.00567197    16
GPS BIII-5  (PRN 11)    
1 48859C 21054A   21319.70645833 -.00000000  00000-0  00000-0 0  3195
2 48859  55.0708  39.6691 0003272 178.2208 128.9137  2.00557175    11
